STARLINK-3886           
1 52582U 22051AY  22201.91668981 -.01066159  00000+0 -43313-1 0  9991
2 52582  53.2172 320.2126 0001475  61.9552 131.4711 15.27009577  1300
STARLINK-3895           
1 52583U 22051AZ  22201.91668981 -.01067868  00000+0 -42234-1 0  9991
2 52583  53.2172 320.2290 0001435  63.3874 164.1614 15.27890246  1308
STARLINK-3906           
1 52585U 22051BB  22201.91668981 -.01068914  00000+0 -41516-1 0  9998
2 52585  53.2172 320.2397 0001552  50.8514 198.6450 15.28481260  1303
STARLINK-3910           
1 52586U 22051BC  22201.91668981 -.01068380  00000+0 -41873-1 0  9992
2 52586  53.2172 320.2344 0001532  53.5680 185.0234 15.28185752  1305
STARLINK-3867           
1 52587U 22051BD  22201.91668981 -.01069414  00000+0 -41160-1 0  9991
2 52587  53.2172 320.2449 0001568  48.4042 211.8595 15.28776750  1308
STARLINK-3917           
1 52588U 22051BE  22201.91668981 -.01069738  00000+0 -40801-1 0  9992
2 52588  53.2172 320.2499 0001367  61.8800 209.0134 15.29072149  1302
STARLINK-4026           
1 52600U 22052C   22201.91668981 -.00014998  00000+0 -92647-3 0  9992
2 52600  53.2152 119.7121 0001684  54.9029 159.6384 15.08828838  1304
STARLINK-4027           
1 52601U 22052D   22201.91668981 -.00089502  00000+0 -56709-2 0  9994
2 52601  53.2135 119.7236 0001604  62.3138 112.2655 15.08872947  1305
STARLINK-4012           
1 52602U 22052E   22201.91668981 -.00025806  00000+0 -16454-2 0  9995
2 52602  53.2150 119.6589 0001716  54.9378 174.0857 15.08026309  1303
