[{
    "OBJECT_NAME": "STARLINK-3886",
    "OBJECT_ID": "2022-051AY",
    "EPOCH": "2022-07-20T22:00:01.999584",
    "MEAN_MOTION": 15.27009577,
    "ECCENTRICITY": 0.0001475,
    "INCLINATION": 53.2172,
    "RA_OF_ASC_NODE": 320.2126,
    "ARG_OF_PERICENTER": 61.9552,
    "MEAN_ANOMALY": 131.4711,
    "EPHEMERIS_TYPE": 0,
    "CLASSIFICATION_TYPE": "U",
    "NORAD_CAT_ID": 52582,
    "ELEMENT_SET_NO": 999,
    "REV_AT_EPOCH": 130,
    "BSTAR": -0.043313,
    "MEAN_MOTION_DOT": -0.01066159,
    "MEAN_MOTION_DDOT": 0
},{
    "OBJECT_NAME": "STARLINK-3895",
    "OBJECT_ID": "2022-051AZ",
    "EPOCH": "2022-07-20T22:00:01.999584",
    "MEAN_MOTION": 15.27890246,
    "ECCENTRICITY": 0.0001435,
    "INCLINATION": 53.2172,
    "RA_OF_ASC_NODE": 320.229,
    "ARG_OF_PERICENTER": 63.3874,
    "MEAN_ANOMALY": 164.1614,
    "EPHEMERIS_TYPE": 0,
    "CLASSIFICATION_TYPE": "U",
    "NORAD_CAT_ID": 52583,
    "ELEMENT_SET_NO": 999,
    "REV_AT_EPOCH": 130,
    "BSTAR": -0.042234,
    "MEAN_MOTION_DOT": -0.01067868,
    "MEAN_MOTION_DDOT": 0
},{
    "OBJECT_NAME": "STARLINK-3906",
    "OBJECT_ID": "2022-051BB",
    "EPOCH": "2022-07-20T22:00:01.999584",
    "MEAN_MOTION": 15.2848126,
    "ECCENTRICITY": 0.0001552,
    "INCLINATION": 53.2172,
    "RA_OF_ASC_NODE": 320.2397,
    "ARG_OF_PERICENTER": 50.8514,
    "MEAN_ANOMALY": 198.645,
    "EPHEMERIS_TYPE": 0,
    "CLASSIFICATION_TYPE": "U",
    "NORAD_CAT_ID": 52585,
    "ELEMENT_SET_NO": 999,
    "REV_AT_EPOCH": 130,
    "BSTAR": -0.041516,
    "MEAN_MOTION_DOT": -0.01068914,
    "MEAN_MOTION_DDOT": 0
},{
    "OBJECT_NAME": "STARLINK-3910",
    "OBJECT_ID": "2022-051BC",
    "EPOCH": "2022-07-20T22:00:01.999584",
    "MEAN_MOTION": 15.28185752,
    "ECCENTRICITY": 0.0001532,
    "INCLINATION": 53.2172,
    "RA_OF_ASC_NODE": 320.2344,
    "ARG_OF_PERICENTER": 53.568,
    "MEAN_ANOMALY": 185.0234,
    "EPHEMERIS_TYPE": 0,
    "CLASSIFICATION_TYPE": "U",
    "NORAD_CAT_ID": 52586,
    "ELEMENT_SET_NO": 999,
    "REV_AT_EPOCH": 130,
    "BSTAR": -0.041873,
    "MEAN_MOTION_DOT": -0.0106838,
    "MEAN_MOTION_DDOT": 0
},{
    "OBJECT_NAME": "STARLINK-3867",
    "OBJECT_ID": "2022-051BD",
    "EPOCH": "2022-07-20T22:00:01.999584",
    "MEAN_MOTION": 15.2877675,
    "ECCENTRICITY": 0.0001568,
    "INCLINATION": 53.2172,
    "RA_OF_ASC_NODE": 320.2449,
    "ARG_OF_PERICENTER": 48.4042,
    "MEAN_ANOMALY": 211.8595,
    "EPHEMERIS_TYPE": 0,
    "CLASSIFICATION_TYPE": "U",
    "NORAD_CAT_ID": 52587,
    "ELEMENT_SET_NO": 999,
    "REV_AT_EPOCH": 130,
    "BSTAR": -0.04116,
    "MEAN_MOTION_DOT": -0.01069414,
    "MEAN_MOTION_DDOT": 0
},{
    "OBJECT_NAME": "STARLINK-3917",
    "OBJECT_ID": "2022-051BE",
    "EPOCH": "2022-07-20T22:00:01.999584",
    "MEAN_MOTION": 15.29072149,
    "ECCENTRICITY": 0.0001367,
    "INCLINATION": 53.2172,
    "RA_OF_ASC_NODE": 320.2499,
    "ARG_OF_PERICENTER": 61.88,
    "MEAN_ANOMALY": 209.0134,
    "EPHEMERIS_TYPE": 0,
    "CLASSIFICATION_TYPE": "U",
    "NORAD_CAT_ID": 52588,
    "ELEMENT_SET_NO": 999,
    "REV_AT_EPOCH": 130,
    "BSTAR": -0.040801,
    "MEAN_MOTION_DOT": -0.01069738,
    "MEAN_MOTION_DDOT": 0
},{
    "OBJECT_NAME": "STARLINK-4026",
    "OBJECT_ID": "2022-052C",
    "EPOCH": "2022-07-20T22:00:01.999584",
    "MEAN_MOTION": 15.08828838,
    "ECCENTRICITY": 0.0001684,
    "INCLINATION": 53.2152,
    "RA_OF_ASC_NODE": 119.7121,
    "ARG_OF_PERICENTER": 54.9029,
    "MEAN_ANOMALY": 159.6384,
    "EPHEMERIS_TYPE": 0,
    "CLASSIFICATION_TYPE": "U",
    "NORAD_CAT_ID": 52600,
    "ELEMENT_SET_NO": 999,
    "REV_AT_EPOCH": 130,
    "BSTAR": -0.00092647,
    "MEAN_MOTION_DOT": -0.00014998,
    "MEAN_MOTION_DDOT": 0
},{
    "OBJECT_NAME": "STARLINK-4027",
    "OBJECT_ID": "2022-052D",
    "EPOCH": "2022-07-20T22:00:01.999584",
    "MEAN_MOTION": 15.08872947,
    "ECCENTRICITY": 0.0001604,
    "INCLINATION": 53.2135,
    "RA_OF_ASC_NODE": 119.7236,
    "ARG_OF_PERICENTER": 62.3138,
    "MEAN_ANOMALY": 112.2655,
    "EPHEMERIS_TYPE": 0,
    "CLASSIFICATION_TYPE": "U",
    "NORAD_CAT_ID": 52601,
    "ELEMENT_SET_NO": 999,
    "REV_AT_EPOCH": 130,
    "BSTAR": -0.0056709,
    "MEAN_MOTION_DOT": -0.00089502,
    "MEAN_MOTION_DDOT": 0
},{
    "OBJECT_NAME": "STARLINK-4012",
    "OBJECT_ID": "2022-052E",
    "EPOCH": "2022-07-20T22:00:01.999584",
    "MEAN_MOTION": 15.08026309,
    "ECCENTRICITY": 0.0001716,
    "INCLINATION": 53.215,
    "RA_OF_ASC_NODE": 119.6589,
    "ARG_OF_PERICENTER": 54.9378,
    "MEAN_ANOMALY": 174.0857,
    "EPHEMERIS_TYPE": 0,
    "CLASSIFICATION_TYPE": "U",
    "NORAD_CAT_ID": 52602,
    "ELEMENT_SET_NO": 999,
    "REV_AT_EPOCH": 130,
    "BSTAR": -0.0016454,
    "MEAN_MOTION_DOT": -0.00025806,
    "MEAN_MOTION_DDOT": 0
}]
